{"type": "FeatureCollection", "features": [ {"type": "Feature", "properties": {"norad_id": 38755, "name": "SPOT 6", "group": "resource", "lat": -11.393859222868596, "lon": -134.34039784708474, "alt_km": 702.0587628815956, "timestamp": "2025-12-08T10:52:02.606294+00:00", "meta": {"OBJECT_NAME": "SPOT 6", "OBJECT_ID": "2012-047A", "EPOCH": "2025-12-07T22:28:04.785600", "MEAN_MOTION": 14.58596054, "ECCENTRICITY": 0.00010783, "INCLINATION": 98.1579, "RA_OF_ASC_NODE": 46.809, "ARG_OF_PERICENTER": 102.3154, "MEAN_ANOMALY": 257.8166, "EPHEMERIS_TYPE": 0, "CLASSIFICATION_TYPE": "U", "NORAD_CAT_ID": 38755, "ELEMENT_SET_NO": 999, "REV_AT_EPOCH": 70517, "BSTAR": 0.00015939094, "MEAN_MOTION_DOT": 6.96e-06, "MEAN_MOTION_DDOT": 0}, "tle": {"line1": "1 38755U 12047A   25341.93616650  .00000696  00000+0  15939-3 0  9993", "line2": "2 38755  98.1579  46.8090 0001078 102.3154 257.8166 14.58596054705170"}}, "geometry": {"type": "Point", "coordinates": [-134.34039784708474, -11.393859222868596]}}, {"type": "Feature", "properties": {"norad_id": 39019, "name": "PLEIADES 1B", "group": "resource", "lat": 81.78401843458477, "lon": -39.80453840447522, "alt_km": 689.5470146482457, "timestamp": "2025-12-08T10:52:02.606304+00:00", "meta": {"OBJECT_NAME": "PLEIADES 1B", "OBJECT_ID": "2012-068A", "EPOCH": "2025-12-07T22:55:40.799712", "MEAN_MOTION": 14.58545459, "ECCENTRICITY": 0.00012201, "INCLINATION": 98.1801, "RA_OF_ASC_NODE": 54.6826, "ARG_OF_PERICENTER": 87.2824, "MEAN_ANOMALY": 272.8515, "EPHEMERIS_TYPE": 0, "CLASSIFICATION_TYPE": "U", "NORAD_CAT_ID": 39019, "ELEMENT_SET_NO": 999, "REV_AT_EPOCH": 69297, "BSTAR": 0.00016120003, "MEAN_MOTION_DOT": 7.04e-06, "MEAN_MOTION_DDOT": 0}, "tle": {"line1": "1 39019U 12068A   25341.95533333  .00000704  00000+0  16120-3 0  9991", "line2": "2 39019  98.1801  54.6826 0001220  87.2824 272.8515 14.58545459692971"}}, "geometry": {"type": "Point", "coordinates": [-39.80453840447522, 81.78401843458477]}}, {"type": "Feature", "properties": {"norad_id": 39030, "name": "GOKTURK 2", "group": "resource", "lat": 47.633603335411344, "lon": 175.7970565453064, "alt_km": 639.6724272615875, "timestamp": "2025-12-08T10:52:02.606315+00:00", "meta": {"OBJECT_NAME": "GOKTURK 2", "OBJECT_ID": "2012-073A", "EPOCH": "2025-12-07T21:37:37.993152", "MEAN_MOTION": 14.75280373, "ECCENTRICITY": 8.946e-05, "INCLINATION": 97.6904, "RA_OF_ASC_NODE": 183.7927, "ARG_OF_PERICENTER": 103.9793, "MEAN_ANOMALY": 256.1516, "EPHEMERIS_TYPE": 0, "CLASSIFICATION_TYPE": "U", "NORAD_CAT_ID": 39030, "ELEMENT_SET_NO": 999, "REV_AT_EPOCH": 69630, "BSTAR": 0.00015835957, "MEAN_MOTION_DOT": 1.025e-05, "MEAN_MOTION_DDOT": 0}, "tle": {"line1": "1 39030U 12073A   25341.90113418  .00001025  00000+0  15836-3 0  9993", "line2": "2 39030  97.6904 183.7927 0000894 103.9793 256.1516 14.75280373696302"}}, "geometry": {"type": "Point", "coordinates": [175.7970565453064, 47.633603335411344]}}, {"type": "Feature", "properties": {"norad_id": 39084, "name": "LANDSAT 8", "group": "resource", "lat": -74.76810019305829, "lon": 82.60022716038843, "alt_km": 710.5975025652951, "timestamp": "2025-12-08T10:52:02.606326+00:00", "meta": {"OBJECT_NAME": "LANDSAT 8", "OBJECT_ID": "2013-008A", "EPOCH": "2025-12-07T22:02:10.821120", "MEAN_MOTION": 14.57106445, "ECCENTRICITY": 0.00011235, "INCLINATION": 98.2078, "RA_OF_ASC_NODE": 50.0627, "ARG_OF_PERICENTER": 86.3664, "MEAN_ANOMALY": 273.7663, "EPHEMERIS_TYPE": 0, "CLASSIFICATION_TYPE": "U", "NORAD_CAT_ID": 39084, "ELEMENT_SET_NO": 999, "REV_AT_EPOCH": 67004, "BSTAR": 0.00017042394, "MEAN_MOTION_DOT": 7.23e-06, "MEAN_MOTION_DDOT": 0}, "tle": {"line1": "1 39084U 13008A   25341.91818080  .00000723  00000+0  17042-3 0  9994", "line2": "2 39084  98.2078  50.0627 0001123  86.3664 273.7663 14.57106445670048"}}, "geometry": {"type": "Point", "coordinates": [82.60022716038843, -74.76810019305829]}}, {"type": "Feature", "properties": {"norad_id": 39086, "name": "SARAL", "group": "resource", "lat": -73.80121038524618, "lon": -162.37020779663737, "alt_km": 791.7655084421449, "timestamp": "2025-12-08T10:52:02.606337+00:00", "meta": {"OBJECT_NAME": "SARAL", "OBJECT_ID": "2013-009A", "EPOCH": "2025-12-07T23:29:25.109376", "MEAN_MOTION": 14.32754409, "ECCENTRICITY": 0.00027653, "INCLINATION": 98.5505, "RA_OF_ASC_NODE": 165.9713, "ARG_OF_PERICENTER": 117.5852, "MEAN_ANOMALY": 242.5614, "EPHEMERIS_TYPE": 0, "CLASSIFICATION_TYPE": "U", "NORAD_CAT_ID": 39086, "ELEMENT_SET_NO": 999, "REV_AT_EPOCH": 66822, "BSTAR": 9.6432095e-05, "MEAN_MOTION_DOT": 2.19e-06, "MEAN_MOTION_DDOT": 0}, "tle": {"line1": "1 39086U 13009A   25341.97876284  .00000219  00000+0  96432-4 0  9994", "line2": "2 39086  98.5505 165.9713 0002765 117.5852 242.5614 14.32754409668228"}}, "geometry": {"type": "Point", "coordinates": [-162.37020779663737, -73.80121038524618]}}, {"type": "Feature", "properties": {"norad_id": 39150, "name": "GAOFEN-1", "group": "resource", "lat": 71.31711338798938, "lon": -102.45781893226939, "alt_km": 625.2320070464029, "timestamp": "2025-12-08T10:52:02.606347+00:00", "meta": {"OBJECT_NAME": "GAOFEN-1", "OBJECT_ID": "2013-018A", "EPOCH": "2025-12-07T22:59:58.060032", "MEAN_MOTION": 14.76520485, "ECCENTRICITY": 0.00179601, "INCLINATION": 97.9332, "RA_OF_ASC_NODE": 52.702, "ARG_OF_PERICENTER": 157.9773, "MEAN_ANOMALY": 202.2212, "EPHEMERIS_TYPE": 0, "CLASSIFICATION_TYPE": "U", "NORAD_CAT_ID": 39150, "ELEMENT_SET_NO": 999, "REV_AT_EPOCH": 68002, "BSTAR": 0.00020381019, "MEAN_MOTION_DOT": 1.373e-05, "MEAN_MOTION_DDOT": 0}, "tle": {"line1": "1 39150U 13018A   25341.95831088  .00001373  00000+0  20381-3 0  9998", "line2": "2 39150  97.9332  52.7020 0017960 157.9773 202.2212 14.76520485680020"}}, "geometry": {"type": "Point", "coordinates": [-102.45781893226939, 71.31711338798938]}}, {"type": "Feature", "properties": {"norad_id": 39160, "name": "VNREDSAT 1", "group": "resource", "lat": -11.501727185395076, "lon": 39.504939776975945, "alt_km": 681.7689680414005, "timestamp": "2025-12-08T10:52:02.606358+00:00", "meta": {"OBJECT_NAME": "VNREDSAT 1", "OBJECT_ID": "2013-021B", "EPOCH": "2025-12-07T21:48:20.948256", "MEAN_MOTION": 14.64911239, "ECCENTRICITY": 0.00013113, "INCLINATION": 97.938, "RA_OF_ASC_NODE": 37.3528, "ARG_OF_PERICENTER": 83.0176, "MEAN_ANOMALY": 277.1177, "EPHEMERIS_TYPE": 0, "CLASSIFICATION_TYPE": "U", "NORAD_CAT_ID": 39160, "ELEMENT_SET_NO": 999, "REV_AT_EPOCH": 67228, "BSTAR": 0.00022168699, "MEAN_MOTION_DOT": 1.14e-05, "MEAN_MOTION_DDOT": 0}, "tle": {"line1": "1 39160U 13021B   25341.90857579  .00001140  00000+0  22169-3 0  9999", "line2": "2 39160  97.9380  37.3528 0001311  83.0176 277.1177 14.64911239672283"}}, "geometry": {"type": "Point", "coordinates": [39.504939776975945, -11.501727185395076]}}, {"type": "Feature", "properties": {"norad_id": 39227, "name": "ARIRANG-5 (KOMPSAT-5)", "group": "resource", "lat": 2.7310687978567496, "lon": -12.81620005265481, "alt_km": 556.4768491398954, "timestamp": "2025-12-08T10:52:02.606368+00:00", "meta": {"OBJECT_NAME": "ARIRANG-5 (KOMPSAT-5)", "OBJECT_ID": "2013-042A", "EPOCH": "2025-12-07T22:54:34.813440", "MEAN_MOTION": 15.04526891, "ECCENTRICITY": 0.00038418, "INCLINATION": 97.6149, "RA_OF_ASC_NODE": 166.3272, "ARG_OF_PERICENTER": 70.7281, "MEAN_ANOMALY": 289.4361, "EPHEMERIS_TYPE": 0, "CLASSIFICATION_TYPE": "U", "NORAD_CAT_ID": 39227, "ELEMENT_SET_NO": 999, "REV_AT_EPOCH": 67510, "BSTAR": 0.0001614938, "MEAN_MOTION_DOT": 2.202e-05, "MEAN_MOTION_DDOT": 0}, "tle": {"line1": "1 39227U 13042A   25341.95456960  .00002202  00000+0  16149-3 0  9991", "line2": "2 39227  97.6149 166.3272 0003841  70.7281 289.4361 15.04526891675102"}}, "geometry": {"type": "Point", "coordinates": [-12.81620005265481, 2.7310687978567496]}}, {"type": "Feature", "properties": {"norad_id": 39418, "name": "SKYSAT-A", "group": "resource", "lat": 78.39245923778317, "lon": -6.529218098005122, "alt_km": 538.2448863243972, "timestamp": "2025-12-08T10:52:02.606380+00:00", "meta": {"OBJECT_NAME": "SKYSAT-A", "OBJECT_ID": "2013-066C", "EPOCH": "2025-12-07T17:01:56.795232", "MEAN_MOTION": 15.11546955, "ECCENTRICITY": 0.00206156, "INCLINATION": 97.4108, "RA_OF_ASC_NODE": 32.0711, "ARG_OF_PERICENTER": 255.2492, "MEAN_ANOMALY": 104.6454, "EPHEMERIS_TYPE": 0, "CLASSIFICATION_TYPE": "U", "NORAD_CAT_ID": 39418, "ELEMENT_SET_NO": 999, "REV_AT_EPOCH": 65954, "BSTAR": 0.00036130607, "MEAN_MOTION_DOT": 6.094e-05, "MEAN_MOTION_DDOT": 0}, "tle": {"line1": "1 39418U 13066C   25341.70968513  .00006094  00000+0  36131-3 0  9990", "line2": "2 39418  97.4108  32.0711 0020615 255.2492 104.6454 15.11546955659548"}}, "geometry": {"type": "Point", "coordinates": [-6.529218098005122, 78.39245923778317]}}, {"type": "Feature", "properties": {"norad_id": 39419, "name": "DUBAISAT-2", "group": "resource", "lat": -81.91316009629996, "lon": 39.95517007530813, "alt_km": 545.3742499649343, "timestamp": "2025-12-08T10:52:02.606391+00:00", "meta": {"OBJECT_NAME": "DUBAISAT-2", "OBJECT_ID": "2013-066D", "EPOCH": "2025-12-07T22:30:48.852288", "MEAN_MOTION": 15.08283178, "ECCENTRICITY": 0.00110337, "INCLINATION": 97.4444, "RA_OF_ASC_NODE": 332.4934, "ARG_OF_PERICENTER": 338.3974, "MEAN_ANOMALY": 21.6788, "EPHEMERIS_TYPE": 0, "CLASSIFICATION_TYPE": "U", "NORAD_CAT_ID": 39419, "ELEMENT_SET_NO": 999, "REV_AT_EPOCH": 65754, "BSTAR": 0.00046251997, "MEAN_MOTION_DOT": 7.121e-05, "MEAN_MOTION_DDOT": 0}, "tle": {"line1": "1 39419U 13066D   25341.93806542  .00007121  00000+0  46252-3 0  9996", "line2": "2 39419  97.4444 332.4934 0011033 338.3974  21.6788 15.08283178657545"}}, "geometry": {"type": "Point", "coordinates": [39.95517007530813, -81.91316009629996]}}]}